{
  "norad_id": 68548,
  "name": "STARLINK-37145",
  "history": [
    {
      "epoch": "2026-04-09T20:00:01.999008Z",
      "apogee_km": 276.55364905958595,
      "perigee_km": 275.4277706510775,
      "latitude_deg": -45.00382803287782,
      "longitude_deg": 42.5839743192259,
      "height_km": 291.4257049173545,
      "semi_major_axis_km": 6654.127709855331,
      "eccentricity": 8.46e-05,
      "inclination_deg": 53.1585,
      "raan_deg": 228.8345,
      "arg_perigee_deg": 52.0241,
      "mean_anomaly_deg": 246.2731,
      "mean_motion_rev_day": 15.99433044
    }
  ]
}