STARLINK-37145          
1 68548U 26070G   26099.83335647 -.00898945  27237-3 -17635-2 0  9994
2 68548  53.1585 228.8345 0000846  52.0241 246.2731 15.99433044  2384
